[{"OBJECT_NAME":"STARLINK-1559","OBJECT_ID":"2020-055BC","EPOCH":"2026-03-09T05:36:23.522976","MEAN_MOTION":15.29461733,"ECCENTRICITY":0.0004229,"INCLINATION":53.0254,"RA_OF_ASC_NODE":76.0659,"ARG_OF_PERICENTER":33.971,"MEAN_ANOMALY":326.1559,"EPHEMERIS_TYPE":0,"CLASSIFICATION_TYPE":"U","NORAD_CAT_ID":46077,"ELEMENT_SET_NO":999,"REV_AT_EPOCH":30951,"BSTAR":0.0014778793,"MEAN_MOTION_DOT":0.00042685,"MEAN_MOTION_DDOT":0},{"OBJECT_NAME":"STARLINK-1913","OBJECT_ID":"2020-088BK","EPOCH":"2026-03-09T22:27:33.641856","MEAN_MOTION":15.30187321,"ECCENTRICITY":0.00011113,"INCLINATION":53.159,"RA_OF_ASC_NODE":305.9142,"ARG_OF_PERICENTER":99.3995,"MEAN_ANOMALY":260.7131,"EPHEMERIS_TYPE":0,"CLASSIFICATION_TYPE":"U","NORAD_CAT_ID":47179,"ELEMENT_SET_NO":999,"REV_AT_EPOCH":29180,"BSTAR":0.00010186015,"MEAN_MOTION_DOT":2.658e-5,"MEAN_MOTION_DDOT":0}]
